{
  "type": "FeatureCollection",
  "features": [
    {
      "type": "Feature",
      "properties": {
        "norad_id": 38474,
        "name": "IRIDIUM 33 DEB",
        "group": "iridium-33-debris",
        "lat": -23.84910710752164,
        "lon": -165.7547384869255,
        "alt_km": 731.7830417774558,
        "timestamp": "2025-12-06T20:37:56.461043+00:00",
        "meta_object_name": "IRIDIUM 33 DEB",
        "meta_object_id": "1997-051AAB",
        "meta_epoch": "2025-12-06T09:45:56.642976",
        "meta_mean_motion": 14.50651883,
        "meta_eccentricity": 0.00281368,
        "meta_inclination": 86.3457,
        "meta_ra_of_asc_node": 12.8234,
        "meta_arg_of_pericenter": 107.4295,
        "meta_mean_anomaly": 252.9989,
        "meta_ephemeris_type": 0,
        "meta_classification_type": "U",
        "meta_norad_cat_id": 38474,
        "meta_element_set_no": 999,
        "meta_rev_at_epoch": 65226,
        "meta_bstar": 0.0010385358,
        "meta_mean_motion_dot": 4.117e-05,
        "meta_mean_motion_ddot": 0,
        "tle_line1": "1 38474U 97051AAB 25340.40690559  .00004117  00000+0  10385-2 0  9991",
        "tle_line2": "2 38474  86.3457  12.8234 0028136 107.4295 252.9989 14.50651883652265"
      },
      "geometry": {
        "type": "Point",
        "coordinates": [
          -165.7547384869255,
          -23.84910710752164
        ]
      }
    },
    {
      "type": "Feature",
      "properties": {
        "norad_id": 39777,
        "name": "IRIDIUM 33 DEB",
        "group": "iridium-33-debris",
        "lat": 49.93738064250699,
        "lon": -6.92192659683152,
        "alt_km": 691.1858022540018,
        "timestamp": "2025-12-06T20:37:56.461060+00:00",
        "meta_object_name": "IRIDIUM 33 DEB",
        "meta_object_id": "1997-051AAJ",
        "meta_epoch": "2025-12-06T00:14:36.412224",
        "meta_mean_motion": 14.5619016,
        "meta_eccentricity": 0.00596608,
        "meta_inclination": 85.9622,
        "meta_ra_of_asc_node": 178.3085,
        "meta_arg_of_pericenter": 209.6605,
        "meta_mean_anomaly": 150.1216,
        "meta_ephemeris_type": 0,
        "meta_classification_type": "U",
        "meta_norad_cat_id": 39777,
        "meta_element_set_no": 999,
        "meta_rev_at_epoch": 60087,
        "meta_bstar": 0.0037764101,
        "meta_mean_motion_dot": 0.00017134,
        "meta_mean_motion_ddot": 0,
        "tle_line1": "1 39777U 97051AAJ 25340.01014366  .00017134  00000+0  37764-2 0  9994",
        "tle_line2": "2 39777  85.9622 178.3085 0059660 209.6605 150.1216 14.56190160600873"
      },
      "geometry": {
        "type": "Point",
        "coordinates": [
          -6.92192659683152,
          49.93738064250699
        ]
      }
    },
    {
      "type": "Feature",
      "properties": {
        "norad_id": 39778,
        "name": "IRIDIUM 33 DEB",
        "group": "iridium-33-debris",
        "lat": 9.502522012514746,
        "lon": 46.38565461915469,
        "alt_km": 709.7364646579954,
        "timestamp": "2025-12-06T20:37:56.461077+00:00",
        "meta_object_name": "IRIDIUM 33 DEB",
        "meta_object_id": "1997-051AAK",
        "meta_epoch": "2025-12-06T10:40:47.981856",
        "meta_mean_motion": 14.54195106,
        "meta_eccentricity": 0.000862,
        "meta_inclination": 86.3781,
        "meta_ra_of_asc_node": 45.9581,
        "meta_arg_of_pericenter": 60.4132,
        "meta_mean_anomaly": 299.7933,
        "meta_ephemeris_type": 0,
        "meta_classification_type": "U",
        "meta_norad_cat_id": 39778,
        "meta_element_set_no": 999,
        "meta_rev_at_epoch": 60601,
        "meta_bstar": 0.0017130397,
        "meta_mean_motion_dot": 7.274e-05,
        "meta_mean_motion_ddot": 0,
        "tle_line1": "1 39778U 97051AAK 25340.44499979  .00007274  00000+0  17130-2 0  9998",
        "tle_line2": "2 39778  86.3781  45.9581 0008620  60.4132 299.7933 14.54195106606014"
      },
      "geometry": {
        "type": "Point",
        "coordinates": [
          46.38565461915469,
          9.502522012514746
        ]
      }
    },
    {
      "type": "Feature",
      "properties": {
        "norad_id": 39781,
        "name": "IRIDIUM 33 DEB",
        "group": "iridium-33-debris",
        "lat": 61.56840967927093,
        "lon": 73.67020703235715,
        "alt_km": 946.9667476645873,
        "timestamp": "2025-12-06T20:37:56.461093+00:00",
        "meta_object_name": "IRIDIUM 33 DEB",
        "meta_object_id": "1997-051AAN",
        "meta_epoch": "2025-12-06T01:31:14.843136",
        "meta_mean_motion": 14.20320372,
        "meta_eccentricity": 0.01798533,
        "meta_inclination": 86.371,
        "meta_ra_of_asc_node": 260.7297,
        "meta_arg_of_pericenter": 294.3997,
        "meta_mean_anomaly": 74.8113,
        "meta_ephemeris_type": 0,
        "meta_classification_type": "U",
        "meta_norad_cat_id": 39781,
        "meta_element_set_no": 999,
        "meta_rev_at_epoch": 8012,
        "meta_bstar": 0.0080170442,
        "meta_mean_motion_dot": 0.00020236,
        "meta_mean_motion_ddot": 0,
        "tle_line1": "1 39781U 97051AAN 25340.06336624  .00020236  00000+0  80170-2 0  9994",
        "tle_line2": "2 39781  86.3710 260.7297 0179853 294.3997  74.8113 14.20320372 80123"
      },
      "geometry": {
        "type": "Point",
        "coordinates": [
          73.67020703235715,
          61.56840967927093
        ]
      }
    },
    {
      "type": "Feature",
      "properties": {
        "norad_id": 39783,
        "name": "IRIDIUM 33 DEB",
        "group": "iridium-33-debris",
        "lat": -55.69552950557672,
        "lon": 84.03762365935815,
        "alt_km": 486.38618994807075,
        "timestamp": "2025-12-06T20:37:56.461110+00:00",
        "meta_object_name": "IRIDIUM 33 DEB",
        "meta_object_id": "1997-051AAQ",
        "meta_epoch": "2025-11-16T15:05:40.850592",
        "meta_mean_motion": 15.19327111,
        "meta_eccentricity": 0.00057535,
        "meta_inclination": 86.1306,
        "meta_ra_of_asc_node": 268.8004,
        "meta_arg_of_pericenter": 179.9151,
        "meta_mean_anomaly": 1.8316,
        "meta_ephemeris_type": 0,
        "meta_classification_type": "U",
        "meta_norad_cat_id": 39783,
        "meta_element_set_no": 999,
        "meta_rev_at_epoch": 60401,
        "meta_bstar": 0.010398125,
        "meta_mean_motion_dot": 0.00226179,
        "meta_mean_motion_ddot": 0,
        "tle_line1": "1 39783U 97051AAQ 25320.62894503  .00226179  00000+0  10398-1 0  9999",
        "tle_line2": "2 39783  86.1306 268.8004 0005753 179.9151   1.8316 15.19327111604018"
      },
      "geometry": {
        "type": "Point",
        "coordinates": [
          84.03762365935815,
          -55.69552950557672
        ]
      }
    },
    {
      "type": "Feature",
      "properties": {
        "norad_id": 40996,
        "name": "IRIDIUM 33 DEB",
        "group": "iridium-33-debris",
        "lat": 48.567992043733845,
        "lon": -179.98724676963857,
        "alt_km": 571.5653479387247,
        "timestamp": "2025-12-06T20:37:56.461127+00:00",
        "meta_object_name": "IRIDIUM 33 DEB",
        "meta_object_id": "1997-051ABJ",
        "meta_epoch": "2025-12-02T08:31:11.979264",
        "meta_mean_motion": 14.95250831,
        "meta_eccentricity": 0.00120962,
        "meta_inclination": 86.3524,
        "meta_ra_of_asc_node": 6.2584,
        "meta_arg_of_pericenter": 92.2467,
        "meta_mean_anomaly": 284.2756,
        "meta_ephemeris_type": 0,
        "meta_classification_type": "U",
        "meta_norad_cat_id": 40996,
        "meta_element_set_no": 999,
        "meta_rev_at_epoch": 62333,
        "meta_bstar": 0.0031243939,
        "meta_mean_motion_dot": 0.0003457,
        "meta_mean_motion_ddot": 0,
        "tle_line1": "1 40996U 97051ABJ 25336.35499976  .00034570  00000+0  31244-2 0  9995",
        "tle_line2": "2 40996  86.3524   6.2584 0012096  92.2467 284.2756 14.95250831623330"
      },
      "geometry": {
        "type": "Point",
        "coordinates": [
          -179.98724676963857,
          48.567992043733845
        ]
      }
    },
    {
      "type": "Feature",
      "properties": {
        "norad_id": 40998,
        "name": "IRIDIUM 33 DEB",
        "group": "iridium-33-debris",
        "lat": -42.767658210682896,
        "lon": -120.47845880186706,
        "alt_km": 752.4794918446114,
        "timestamp": "2025-12-06T20:37:56.461149+00:00",
        "meta_object_name": "IRIDIUM 33 DEB",
        "meta_object_id": "1997-051ABL",
        "meta_epoch": "2025-12-03T12:06:12.154176",
        "meta_mean_motion": 14.45043538,
        "meta_eccentricity": 0.00095708,
        "meta_inclination": 86.3836,
        "meta_ra_of_asc_node": 57.6004,
        "meta_arg_of_pericenter": 108.6038,
        "meta_mean_anomaly": 309.9308,
        "meta_ephemeris_type": 0,
        "meta_classification_type": "U",
        "meta_norad_cat_id": 40998,
        "meta_element_set_no": 999,
        "meta_rev_at_epoch": 6548,
        "meta_bstar": 0.00081638604,
        "meta_mean_motion_dot": 2.87e-05,
        "meta_mean_motion_ddot": 0,
        "tle_line1": "1 40998U 97051ABL 25337.50430734  .00002870  00000+0  81639-3 0  9994",
        "tle_line2": "2 40998  86.3836  57.6004 0009570 108.6038 309.9308 14.45043538 65487"
      },
      "geometry": {
        "type": "Point",
        "coordinates": [
          -120.47845880186706,
          -42.767658210682896
        ]
      }
    }
  ]
}